CCSDS_OMM_VERS = 2.0
CREATION_DATE  = 
ORIGINATOR     = 

OBJECT_NAME    = SL-3 R/B
OBJECT_ID      = 1982-079B
CENTER_NAME    = EARTH
REF_FRAME      = TEME
TIME_SYSTEM    = UTC
MEAN_ELEMENT_THEORY = SGP/SGP4

EPOCH          = 2025-12-10T02:52:08.721696
MEAN_MOTION    = 15.23537059
ECCENTRICITY   = .0027032
INCLINATION    = 81.1471
RA_OF_ASC_NODE = 298.7492
ARG_OF_PERICENTER = 107.4052
MEAN_ANOMALY   = 253.0140

EPHEMERIS_TYPE = 0
CLASSIFICATION_TYPE = U
NORAD_CAT_ID   = 13403
ELEMENT_SET_NO = 999
REV_AT_EPOCH   = 36405
BSTAR          = .32176E-3
MEAN_MOTION_DOT = .7792E-4
MEAN_MOTION_DDOT = 0

CCSDS_OMM_VERS = 2.0
CREATION_DATE  = 
ORIGINATOR     = 

OBJECT_NAME    = SL-14 R/B
OBJECT_ID      = 1982-092B
CENTER_NAME    = EARTH
REF_FRAME      = TEME
TIME_SYSTEM    = UTC
MEAN_ELEMENT_THEORY = SGP/SGP4

EPOCH          = 2025-12-10T03:21:09.648864
MEAN_MOTION    = 14.86551515
ECCENTRICITY   = .0019046
INCLINATION    = 82.5686
RA_OF_ASC_NODE = 225.1433
ARG_OF_PERICENTER = 236.2994
MEAN_ANOMALY   = 275.7022

EPHEMERIS_TYPE = 0
CLASSIFICATION_TYPE = U
NORAD_CAT_ID   = 13553
ELEMENT_SET_NO = 999
REV_AT_EPOCH   = 31562
BSTAR          = .79807E-4
MEAN_MOTION_DOT = .733E-5
MEAN_MOTION_DDOT = 0

CCSDS_OMM_VERS = 2.0
CREATION_DATE  = 
ORIGINATOR     = 

OBJECT_NAME    = SL-3 R/B
OBJECT_ID      = 1983-010B
CENTER_NAME    = EARTH
REF_FRAME      = TEME
TIME_SYSTEM    = UTC
MEAN_ELEMENT_THEORY = SGP/SGP4

EPOCH          = 2025-12-09T18:57:13.200768
MEAN_MOTION    = 15.43332266
ECCENTRICITY   = .0017337
INCLINATION    = 81.1039
RA_OF_ASC_NODE = 112.2194
ARG_OF_PERICENTER = 1.4125
MEAN_ANOMALY   = 358.7164

EPHEMERIS_TYPE = 0
CLASSIFICATION_TYPE = U
NORAD_CAT_ID   = 13819
ELEMENT_SET_NO = 999
REV_AT_EPOCH   = 34406
BSTAR          = .43789E-3
MEAN_MOTION_DOT = .1967E-3
MEAN_MOTION_DDOT = 0

CCSDS_OMM_VERS = 2.0
CREATION_DATE  = 
ORIGINATOR     = 

OBJECT_NAME    = SL-3 R/B
OBJECT_ID      = 1983-075B
CENTER_NAME    = EARTH
REF_FRAME      = TEME
TIME_SYSTEM    = UTC
MEAN_ELEMENT_THEORY = SGP/SGP4

EPOCH          = 2025-12-10T02:47:41.395776
MEAN_MOTION    = 15.36048631
ECCENTRICITY   = .0022455
INCLINATION    = 97.6109
RA_OF_ASC_NODE = 340.5117
ARG_OF_PERICENTER = 184.7666
MEAN_ANOMALY   = 175.3367

EPHEMERIS_TYPE = 0
CLASSIFICATION_TYPE = U
NORAD_CAT_ID   = 14208
ELEMENT_SET_NO = 999
REV_AT_EPOCH   = 31639
BSTAR          = .38156E-3
MEAN_MOTION_DOT = .13428E-3
MEAN_MOTION_DDOT = 0

CCSDS_OMM_VERS = 2.0
CREATION_DATE  = 
ORIGINATOR     = 

OBJECT_NAME    = COSMOS 1536
OBJECT_ID      = 1984-013A
CENTER_NAME    = EARTH
REF_FRAME      = TEME
TIME_SYSTEM    = UTC
MEAN_ELEMENT_THEORY = SGP/SGP4

EPOCH          = 2025-12-10T01:06:09.260064
MEAN_MOTION    = 15.22470717
ECCENTRICITY   = .0013384
INCLINATION    = 82.5455
RA_OF_ASC_NODE = 196.8360
ARG_OF_PERICENTER = 236.2617
MEAN_ANOMALY   = 123.7344

EPHEMERIS_TYPE = 0
CLASSIFICATION_TYPE = U
NORAD_CAT_ID   = 14699
ELEMENT_SET_NO = 999
REV_AT_EPOCH   = 25897
BSTAR          = .32825E-3
MEAN_MOTION_DOT = .7647E-4
MEAN_MOTION_DDOT = 0

CCSDS_OMM_VERS = 2.0
CREATION_DATE  = 
ORIGINATOR     = 

OBJECT_NAME    = SL-14 R/B
OBJECT_ID      = 1984-027B
CENTER_NAME    = EARTH
REF_FRAME      = TEME
TIME_SYSTEM    = UTC
MEAN_ELEMENT_THEORY = SGP/SGP4

EPOCH          = 2025-12-10T01:31:57.491040
MEAN_MOTION    = 14.85869749
ECCENTRICITY   = .0016374
INCLINATION    = 82.5411
RA_OF_ASC_NODE = 329.0658
ARG_OF_PERICENTER = 270.5530
MEAN_ANOMALY   = 89.3810

EPHEMERIS_TYPE = 0
CLASSIFICATION_TYPE = U
NORAD_CAT_ID   = 14820
ELEMENT_SET_NO = 999
REV_AT_EPOCH   = 23432
BSTAR          = .9189E-4
MEAN_MOTION_DOT = .826E-5
MEAN_MOTION_DDOT = 0

CCSDS_OMM_VERS = 2.0
CREATION_DATE  = 
ORIGINATOR     = 

OBJECT_NAME    = SL-8 R/B
OBJECT_ID      = 1985-006B
CENTER_NAME    = EARTH
REF_FRAME      = TEME
TIME_SYSTEM    = UTC
MEAN_ELEMENT_THEORY = SGP/SGP4

EPOCH          = 2025-12-09T12:58:57.082080
MEAN_MOTION    = 14.37718554
ECCENTRICITY   = .0018537
INCLINATION    = 74.0466
RA_OF_ASC_NODE = 67.0199
ARG_OF_PERICENTER = 0.0665
MEAN_ANOMALY   = 11.3183

EPHEMERIS_TYPE = 0
CLASSIFICATION_TYPE = U
NORAD_CAT_ID   = 15483
ELEMENT_SET_NO = 999
REV_AT_EPOCH   = 14107
BSTAR          = .16665E-3
MEAN_MOTION_DOT = .476E-5
MEAN_MOTION_DDOT = 0

CCSDS_OMM_VERS = 2.0
CREATION_DATE  = 
ORIGINATOR     = 

OBJECT_NAME    = SL-12 R/B(2)
OBJECT_ID      = 1985-042D
CENTER_NAME    = EARTH
REF_FRAME      = TEME
TIME_SYSTEM    = UTC
MEAN_ELEMENT_THEORY = SGP/SGP4

EPOCH          = 2025-12-10T03:35:35.693088
MEAN_MOTION    = 14.21950735
ECCENTRICITY   = .003766
INCLINATION    = 71.1086
RA_OF_ASC_NODE = 276.8914
ARG_OF_PERICENTER = 265.3137
MEAN_ANOMALY   = 189.8061

EPHEMERIS_TYPE = 0
CLASSIFICATION_TYPE = U
NORAD_CAT_ID   = 15772
ELEMENT_SET_NO = 999
REV_AT_EPOCH   = 10166
BSTAR          = .13057E-3
MEAN_MOTION_DOT = .243E-5
MEAN_MOTION_DDOT = 0

CCSDS_OMM_VERS = 2.0
CREATION_DATE  = 
ORIGINATOR     = 

OBJECT_NAME    = SL-14 R/B
OBJECT_ID      = 1985-069B
CENTER_NAME    = EARTH
REF_FRAME      = TEME
TIME_SYSTEM    = UTC
MEAN_ELEMENT_THEORY = SGP/SGP4

EPOCH          = 2025-12-09T17:44:36.689856
MEAN_MOTION    = 14.86319256
ECCENTRICITY   = .0019993
INCLINATION    = 82.5265
RA_OF_ASC_NODE = 109.5235
ARG_OF_PERICENTER = 127.8074
MEAN_ANOMALY   = 232.4956

EPHEMERIS_TYPE = 0
CLASSIFICATION_TYPE = U
NORAD_CAT_ID   = 15945
ELEMENT_SET_NO = 999
REV_AT_EPOCH   = 15947
BSTAR          = .1168E-3
MEAN_MOTION_DOT = .1056E-4
MEAN_MOTION_DDOT = 0

CCSDS_OMM_VERS = 2.0
CREATION_DATE  = 
ORIGINATOR     = 

OBJECT_NAME    = SL-16 R/B
OBJECT_ID      = 1985-097B
CENTER_NAME    = EARTH
REF_FRAME      = TEME
TIME_SYSTEM    = UTC
MEAN_ELEMENT_THEORY = SGP/SGP4

EPOCH          = 2025-12-10T04:04:00.797952
MEAN_MOTION    = 14.16582470
ECCENTRICITY   = .0006513
INCLINATION    = 71.0031
RA_OF_ASC_NODE = 329.0143
ARG_OF_PERICENTER = 15.1057
MEAN_ANOMALY   = 59.4978

EPHEMERIS_TYPE = 0
CLASSIFICATION_TYPE = U
NORAD_CAT_ID   = 16182
ELEMENT_SET_NO = 999
REV_AT_EPOCH   = 7455
BSTAR          = .11781E-3
MEAN_MOTION_DOT = .187E-5
MEAN_MOTION_DDOT = 0

CCSDS_OMM_VERS = 2.0
CREATION_DATE  = 
ORIGINATOR     = 

OBJECT_NAME    = SL-14 R/B
OBJECT_ID      = 1986-006B
CENTER_NAME    = EARTH
REF_FRAME      = TEME
TIME_SYSTEM    = UTC
MEAN_ELEMENT_THEORY = SGP/SGP4

EPOCH          = 2025-12-10T01:47:57.719040
MEAN_MOTION    = 14.86666234
ECCENTRICITY   = .0075945
INCLINATION    = 82.5264
RA_OF_ASC_NODE = 344.0588
ARG_OF_PERICENTER = 208.7316
MEAN_ANOMALY   = 150.9709

EPHEMERIS_TYPE = 0
CLASSIFICATION_TYPE = U
NORAD_CAT_ID   = 16496
ELEMENT_SET_NO = 999
REV_AT_EPOCH   = 13589
BSTAR          = .10364E-3
MEAN_MOTION_DOT = .996E-5
MEAN_MOTION_DDOT = 0

CCSDS_OMM_VERS = 2.0
CREATION_DATE  = 
ORIGINATOR     = 

OBJECT_NAME    = COSMOS 1743
OBJECT_ID      = 1986-034A
CENTER_NAME    = EARTH
REF_FRAME      = TEME
TIME_SYSTEM    = UTC
MEAN_ELEMENT_THEORY = SGP/SGP4

EPOCH          = 2025-12-10T03:21:31.832064
MEAN_MOTION    = 15.51932460
ECCENTRICITY   = .0004639
INCLINATION    = 82.5348
RA_OF_ASC_NODE = 167.2918
ARG_OF_PERICENTER = 264.9942
MEAN_ANOMALY   = 95.0780

EPHEMERIS_TYPE = 0
CLASSIFICATION_TYPE = U
NORAD_CAT_ID   = 16719
ELEMENT_SET_NO = 999
REV_AT_EPOCH   = 16633
BSTAR          = .6083E-3
MEAN_MOTION_DOT = .36651E-3
MEAN_MOTION_DDOT = 0

