SL-3 R/B                
1 13403U 82079B   25344.11954539  .00007792  00000+0  32176-3 0  9998
2 13403  81.1471 298.7492 0027032 107.4052 253.0140 15.23537059364052
SL-14 R/B               
1 13553U 82092B   25344.13969501  .00000733  00000+0  79807-4 0  9997
2 13553  82.5686 225.1433 0019046 236.2994 275.7022 14.86551515315622
SL-3 R/B                
1 13819U 83010B   25343.78973612  .00019670  00000+0  43789-3 0  9990
2 13819  81.1039 112.2194 0017337   1.4125 358.7164 15.43332266344066
SL-3 R/B                
1 14208U 83075B   25344.11645134  .00013428  00000+0  38156-3 0  9994
2 14208  97.6109 340.5117 0022455 184.7666 175.3367 15.36048631316397
COSMOS 1536             
1 14699U 84013A   25344.04594051  .00007647  00000+0  32825-3 0  9997
2 14699  82.5455 196.8360 0013384 236.2617 123.7344 15.22470717258970
SL-14 R/B               
1 14820U 84027B   25344.06385985  .00000826  00000+0  91890-4 0  9994
2 14820  82.5411 329.0658 0016374 270.5530  89.3810 14.85869749234328
SL-8 R/B                
1 15483U 85006B   25343.54093845  .00000476  00000+0  16665-3 0  9998
2 15483  74.0466  67.0199 0018537   0.0665  11.3183 14.37718554141078
SL-12 R/B(2)            
1 15772U 85042D   25344.14971867  .00000243  00000+0  13057-3 0  9999
2 15772  71.1086 276.8914 0037660 265.3137 189.8061 14.21950735101667
SL-14 R/B               
1 15945U 85069B   25343.73931354  .00001056  00000+0  11680-3 0  9994
2 15945  82.5265 109.5235 0019993 127.8074 232.4956 14.86319256159471
SL-16 R/B               
1 16182U 85097B   25344.16945368  .00000187  00000+0  11781-3 0  9993
2 16182  71.0031 329.0143 0006513  15.1057  59.4978 14.16582470 74559
SL-14 R/B               
1 16496U 86006B   25344.07497360  .00000996  00000+0  10364-3 0  9990
2 16496  82.5264 344.0588 0075945 208.7316 150.9709 14.86666234135897
COSMOS 1743             
1 16719U 86034A   25344.13995176  .00036651  00000+0  60830-3 0  9994
2 16719  82.5348 167.2918 0004639 264.9942  95.0780 15.51932460166332
